CCSDS_OMM_VERS = 2.0
CREATION_DATE  = 
ORIGINATOR     = 

OBJECT_NAME    = UNKNOWN
OBJECT_ID      = 
CENTER_NAME    = EARTH
REF_FRAME      = TEME
TIME_SYSTEM    = UTC
MEAN_ELEMENT_THEORY = SGP/SGP4

EPOCH          = 2026-01-25T13:47:28.076928
MEAN_MOTION    = 2.16233433
ECCENTRICITY   = .6158541
INCLINATION    = 22.3968
RA_OF_ASC_NODE = 168.5868
ARG_OF_PERICENTER = 76.0884
MEAN_ANOMALY   = 341.7263

EPHEMERIS_TYPE = 0
CLASSIFICATION_TYPE = U
NORAD_CAT_ID   = 84006
ELEMENT_SET_NO = 999
REV_AT_EPOCH   = 8517
BSTAR          = 0
MEAN_MOTION_DOT = .69E-6
MEAN_MOTION_DDOT = 0

CCSDS_OMM_VERS = 2.0
CREATION_DATE  = 
ORIGINATOR     = 

OBJECT_NAME    = UNKNOWN
OBJECT_ID      = 
CENTER_NAME    = EARTH
REF_FRAME      = TEME
TIME_SYSTEM    = UTC
MEAN_ELEMENT_THEORY = SGP/SGP4

EPOCH          = 2026-01-21T19:38:29.116320
MEAN_MOTION    = 7.87378171
ECCENTRICITY   = .3625179
INCLINATION    = 65.0311
RA_OF_ASC_NODE = 222.4584
ARG_OF_PERICENTER = 14.3088
MEAN_ANOMALY   = 353.7650

EPHEMERIS_TYPE = 0
CLASSIFICATION_TYPE = U
NORAD_CAT_ID   = 84188
ELEMENT_SET_NO = 999
REV_AT_EPOCH   = 4436
BSTAR          = .24249E+0
MEAN_MOTION_DOT = .591225E-2
MEAN_MOTION_DDOT = 0

CCSDS_OMM_VERS = 2.0
CREATION_DATE  = 
ORIGINATOR     = 

OBJECT_NAME    = UNKNOWN
OBJECT_ID      = 
CENTER_NAME    = EARTH
REF_FRAME      = TEME
TIME_SYSTEM    = UTC
MEAN_ELEMENT_THEORY = SGP/SGP4

EPOCH          = 2026-01-27T17:50:55.173696
MEAN_MOTION    = 3.18850207
ECCENTRICITY   = .6549802
INCLINATION    = 20.3133
RA_OF_ASC_NODE = 247.6136
ARG_OF_PERICENTER = 112.2753
MEAN_ANOMALY   = 326.4425

EPHEMERIS_TYPE = 0
CLASSIFICATION_TYPE = U
NORAD_CAT_ID   = 84232
ELEMENT_SET_NO = 999
REV_AT_EPOCH   = 10615
BSTAR          = .2319E-1
MEAN_MOTION_DOT = .29011E-3
MEAN_MOTION_DDOT = 0

CCSDS_OMM_VERS = 2.0
CREATION_DATE  = 
ORIGINATOR     = 

OBJECT_NAME    = UNKNOWN
OBJECT_ID      = 
CENTER_NAME    = EARTH
REF_FRAME      = TEME
TIME_SYSTEM    = UTC
MEAN_ELEMENT_THEORY = SGP/SGP4

EPOCH          = 2026-01-29T04:17:12.736896
MEAN_MOTION    = 2.62600250
ECCENTRICITY   = .6892235
INCLINATION    = 9.3849
RA_OF_ASC_NODE = 314.0241
ARG_OF_PERICENTER = 136.1813
MEAN_ANOMALY   = 305.9761

EPHEMERIS_TYPE = 0
CLASSIFICATION_TYPE = U
NORAD_CAT_ID   = 84236
ELEMENT_SET_NO = 999
REV_AT_EPOCH   = 11522
BSTAR          = .66142E-2
MEAN_MOTION_DOT = .1033E-4
MEAN_MOTION_DDOT = 0

CCSDS_OMM_VERS = 2.0
CREATION_DATE  = 
ORIGINATOR     = 

OBJECT_NAME    = UNKNOWN
OBJECT_ID      = 
CENTER_NAME    = EARTH
REF_FRAME      = TEME
TIME_SYSTEM    = UTC
MEAN_ELEMENT_THEORY = SGP/SGP4

EPOCH          = 2026-01-27T11:52:19.699680
MEAN_MOTION    = 6.21901601
ECCENTRICITY   = .4560589
INCLINATION    = 23.8200
RA_OF_ASC_NODE = 96.9560
ARG_OF_PERICENTER = 350.2421
MEAN_ANOMALY   = 3.2896

EPHEMERIS_TYPE = 0
CLASSIFICATION_TYPE = U
NORAD_CAT_ID   = 84292
ELEMENT_SET_NO = 999
REV_AT_EPOCH   = 23091
BSTAR          = .29437E-2
MEAN_MOTION_DOT = .5138E-4
MEAN_MOTION_DDOT = 0

CCSDS_OMM_VERS = 2.0
CREATION_DATE  = 
ORIGINATOR     = 

OBJECT_NAME    = UNKNOWN
OBJECT_ID      = 
CENTER_NAME    = EARTH
REF_FRAME      = TEME
TIME_SYSTEM    = UTC
MEAN_ELEMENT_THEORY = SGP/SGP4

EPOCH          = 2026-01-08T05:15:04.591296
MEAN_MOTION    = 12.67381377
ECCENTRICITY   = .0042055
INCLINATION    = 101.7141
RA_OF_ASC_NODE = 157.7019
ARG_OF_PERICENTER = 340.3466
MEAN_ANOMALY   = 199.3092

EPHEMERIS_TYPE = 0
CLASSIFICATION_TYPE = U
NORAD_CAT_ID   = 84406
ELEMENT_SET_NO = 999
REV_AT_EPOCH   = 5264
BSTAR          = .43231E-2
MEAN_MOTION_DOT = .785E-5
MEAN_MOTION_DDOT = 0

CCSDS_OMM_VERS = 2.0
CREATION_DATE  = 
ORIGINATOR     = 

OBJECT_NAME    = UNKNOWN
OBJECT_ID      = 
CENTER_NAME    = EARTH
REF_FRAME      = TEME
TIME_SYSTEM    = UTC
MEAN_ELEMENT_THEORY = SGP/SGP4

EPOCH          = 2026-01-16T22:09:35.551296
MEAN_MOTION    = 2.05777016
ECCENTRICITY   = .7202436
INCLINATION    = 19.4644
RA_OF_ASC_NODE = 312.1530
ARG_OF_PERICENTER = 80.6851
MEAN_ANOMALY   = 347.5491

EPHEMERIS_TYPE = 0
CLASSIFICATION_TYPE = U
NORAD_CAT_ID   = 84407
ELEMENT_SET_NO = 999
REV_AT_EPOCH   = 7659
BSTAR          = .12077E-1
MEAN_MOTION_DOT = .26E-5
MEAN_MOTION_DDOT = 0

CCSDS_OMM_VERS = 2.0
CREATION_DATE  = 
ORIGINATOR     = 

OBJECT_NAME    = UNKNOWN
OBJECT_ID      = 
CENTER_NAME    = EARTH
REF_FRAME      = TEME
TIME_SYSTEM    = UTC
MEAN_ELEMENT_THEORY = SGP/SGP4

EPOCH          = 2026-01-23T16:24:42.129216
MEAN_MOTION    = 2.19880109
ECCENTRICITY   = .7105805
INCLINATION    = 18.0471
RA_OF_ASC_NODE = 144.6559
ARG_OF_PERICENTER = 47.9126
MEAN_ANOMALY   = 353.5221

EPHEMERIS_TYPE = 0
CLASSIFICATION_TYPE = U
NORAD_CAT_ID   = 84575
ELEMENT_SET_NO = 999
REV_AT_EPOCH   = 6638
BSTAR          = -.88412E-2
MEAN_MOTION_DOT = -.153E-5
MEAN_MOTION_DDOT = 0

CCSDS_OMM_VERS = 2.0
CREATION_DATE  = 
ORIGINATOR     = 

OBJECT_NAME    = UNKNOWN
OBJECT_ID      = 
CENTER_NAME    = EARTH
REF_FRAME      = TEME
TIME_SYSTEM    = UTC
MEAN_ELEMENT_THEORY = SGP/SGP4

EPOCH          = 2026-01-28T00:07:18.345216
MEAN_MOTION    = 3.00052793
ECCENTRICITY   = .6577964
INCLINATION    = 2.0285
RA_OF_ASC_NODE = 216.0437
ARG_OF_PERICENTER = 108.3872
MEAN_ANOMALY   = 250.2421

EPHEMERIS_TYPE = 0
CLASSIFICATION_TYPE = U
NORAD_CAT_ID   = 84932
ELEMENT_SET_NO = 999
REV_AT_EPOCH   = 13316
BSTAR          = .10338E-1
MEAN_MOTION_DOT = .1322E-4
MEAN_MOTION_DDOT = 0

CCSDS_OMM_VERS = 2.0
CREATION_DATE  = 
ORIGINATOR     = 

OBJECT_NAME    = UNKNOWN
OBJECT_ID      = 
CENTER_NAME    = EARTH
REF_FRAME      = TEME
TIME_SYSTEM    = UTC
MEAN_ELEMENT_THEORY = SGP/SGP4

EPOCH          = 2026-01-26T04:43:59.352672
MEAN_MOTION    = 14.41221526
ECCENTRICITY   = .0047739
INCLINATION    = 98.4272
RA_OF_ASC_NODE = 1.5900
ARG_OF_PERICENTER = 30.0577
MEAN_ANOMALY   = 344.8034

EPHEMERIS_TYPE = 0
CLASSIFICATION_TYPE = U
NORAD_CAT_ID   = 85004
ELEMENT_SET_NO = 999
REV_AT_EPOCH   = 63730
BSTAR          = .71691E-3
MEAN_MOTION_DOT = .2303E-4
MEAN_MOTION_DDOT = 0

CCSDS_OMM_VERS = 2.0
CREATION_DATE  = 
ORIGINATOR     = 

OBJECT_NAME    = UNKNOWN
OBJECT_ID      = 
CENTER_NAME    = EARTH
REF_FRAME      = TEME
TIME_SYSTEM    = UTC
MEAN_ELEMENT_THEORY = SGP/SGP4

EPOCH          = 2026-01-23T14:07:14.647872
MEAN_MOTION    = 13.75158132
ECCENTRICITY   = .0025029
INCLINATION    = 99.2489
RA_OF_ASC_NODE = 249.2205
ARG_OF_PERICENTER = 142.7232
MEAN_ANOMALY   = 245.1689

EPHEMERIS_TYPE = 0
CLASSIFICATION_TYPE = U
NORAD_CAT_ID   = 85010
ELEMENT_SET_NO = 999
REV_AT_EPOCH   = 60967
BSTAR          = .17271E-2
MEAN_MOTION_DOT = .1614E-4
MEAN_MOTION_DDOT = 0

CCSDS_OMM_VERS = 2.0
CREATION_DATE  = 
ORIGINATOR     = 

OBJECT_NAME    = UNKNOWN
OBJECT_ID      = 
CENTER_NAME    = EARTH
REF_FRAME      = TEME
TIME_SYSTEM    = UTC
MEAN_ELEMENT_THEORY = SGP/SGP4

EPOCH          = 2026-01-27T03:06:54.859968
MEAN_MOTION    = 14.62361886
ECCENTRICITY   = .0015675
INCLINATION    = 74.0521
RA_OF_ASC_NODE = 311.3414
ARG_OF_PERICENTER = 210.3289
MEAN_ANOMALY   = 149.6972

EPHEMERIS_TYPE = 0
CLASSIFICATION_TYPE = U
NORAD_CAT_ID   = 85015
ELEMENT_SET_NO = 999
REV_AT_EPOCH   = 64924
BSTAR          = .19239E-3
MEAN_MOTION_DOT = .944E-5
MEAN_MOTION_DDOT = 0

